[{"OBJECT_NAME":"YAOGAN-40 03B","OBJECT_ID":"2025-199B","EPOCH":"2026-03-10T00:01:41.907936","MEAN_MOTION":14.12426909,"ECCENTRICITY":0.00025675,"INCLINATION":85.9851,"RA_OF_ASC_NODE":88.6192,"ARG_OF_PERICENTER":88.5061,"MEAN_ANOMALY":271.6416,"EPHEMERIS_TYPE":0,"CLASSIFICATION_TYPE":"U","NORAD_CAT_ID":65545,"ELEMENT_SET_NO":999,"REV_AT_EPOCH":2603,"BSTAR":7.1131011e-5,"MEAN_MOTION_DOT":1.5e-6,"MEAN_MOTION_DDOT":0},{"OBJECT_NAME":"FENGYUN 1C DEB","OBJECT_ID":"1999-025FCG","EPOCH":"2026-03-09T08:30:49.701888","MEAN_MOTION":14.10281112,"ECCENTRICITY":0.01285289,"INCLINATION":99.2576,"RA_OF_ASC_NODE":37.1972,"ARG_OF_PERICENTER":217.2945,"MEAN_ANOMALY":141.9248,"EPHEMERIS_TYPE":0,"CLASSIFICATION_TYPE":"U","NORAD_CAT_ID":48518,"ELEMENT_SET_NO":999,"REV_AT_EPOCH":61390,"BSTAR":0.0019221359,"MEAN_MOTION_DOT":3.635e-5,"MEAN_MOTION_DDOT":0}]
